{
  "type": "FeatureCollection",
  "features": [
    {
      "type": "Feature",
      "properties": {
        "norad_id": 15362,
        "name": "NOVA 3",
        "group": "nnss",
        "lat": -21.654461335236267,
        "lon": 80.47739829213414,
        "alt_km": 1156.0514954411638,
        "timestamp": "2025-12-03T17:47:50.986267+00:00",
        "meta_object_name": "NOVA 3",
        "meta_object_id": "1984-110A",
        "meta_epoch": "2025-12-03T12:30:59.346144",
        "meta_mean_motion": 13.23042704,
        "meta_eccentricity": 0.0031242,
        "meta_inclination": 90.1226,
        "meta_ra_of_asc_node": 80.4261,
        "meta_arg_of_pericenter": 357.8421,
        "meta_mean_anomaly": 13.2842,
        "meta_ephemeris_type": 0,
        "meta_classification_type": "U",
        "meta_norad_cat_id": 15362,
        "meta_element_set_no": 999,
        "meta_rev_at_epoch": 98577,
        "meta_bstar": 7.1265e-05,
        "meta_mean_motion_dot": 3.8e-07,
        "meta_mean_motion_ddot": 0,
        "tle_line1": "1 15362U 84110A   25337.52152021  .00000038  00000+0  71265-4 0  9994",
        "tle_line2": "2 15362  90.1226  80.4261 0031242 357.8421  13.2842 13.23042704985774"
      },
      "geometry": {
        "type": "Point",
        "coordinates": [
          80.47739829213414,
          -21.654461335236267
        ]
      }
    },
    {
      "type": "Feature",
      "properties": {
        "norad_id": 15935,
        "name": "OSCAR 30",
        "group": "nnss",
        "lat": -4.175175003757913,
        "lon": 99.71204963157086,
        "alt_km": 1175.3606090898247,
        "timestamp": "2025-12-03T17:47:50.986277+00:00",
        "meta_object_name": "OSCAR 30",
        "meta_object_id": "1985-066A",
        "meta_epoch": "2025-12-03T09:10:03.206784",
        "meta_mean_motion": 13.36075894,
        "meta_eccentricity": 0.016936,
        "meta_inclination": 90.1646,
        "meta_ra_of_asc_node": 99.6942,
        "meta_arg_of_pericenter": 110.0242,
        "meta_mean_anomaly": 319.1865,
        "meta_ephemeris_type": 0,
        "meta_classification_type": "U",
        "meta_norad_cat_id": 15935,
        "meta_element_set_no": 999,
        "meta_rev_at_epoch": 96328,
        "meta_bstar": 0.00022149,
        "meta_mean_motion_dot": 1.33e-06,
        "meta_mean_motion_ddot": 0,
        "tle_line1": "1 15935U 85066A   25337.38198156  .00000133  00000+0  22149-3 0  9996",
        "tle_line2": "2 15935  90.1646  99.6942 0169360 110.0242 319.1865 13.36075894963282"
      },
      "geometry": {
        "type": "Point",
        "coordinates": [
          99.71204963157086,
          -4.175175003757913
        ]
      }
    },
    {
      "type": "Feature",
      "properties": {
        "norad_id": 15936,
        "name": "OSCAR 24",
        "group": "nnss",
        "lat": 76.43911005206711,
        "lon": 91.40523142870941,
        "alt_km": 1017.1246285547086,
        "timestamp": "2025-12-03T17:47:50.986287+00:00",
        "meta_object_name": "OSCAR 24",
        "meta_object_id": "1985-066B",
        "meta_epoch": "2025-12-03T08:43:31.664352",
        "meta_mean_motion": 13.35933518,
        "meta_eccentricity": 0.0170371,
        "meta_inclination": 90.1786,
        "meta_ra_of_asc_node": 92.1395,
        "meta_arg_of_pericenter": 116.5141,
        "meta_mean_anomaly": 304.2883,
        "meta_ephemeris_type": 0,
        "meta_classification_type": "U",
        "meta_norad_cat_id": 15936,
        "meta_element_set_no": 999,
        "meta_rev_at_epoch": 96518,
        "meta_bstar": 0.00015688,
        "meta_mean_motion_dot": 9.7e-07,
        "meta_mean_motion_ddot": 0,
        "tle_line1": "1 15936U 85066B   25337.36356093  .00000097  00000+0  15688-3 0  9990",
        "tle_line2": "2 15936  90.1786  92.1395 0170371 116.5141 304.2883 13.35933518965182"
      },
      "geometry": {
        "type": "Point",
        "coordinates": [
          91.40523142870941,
          76.43911005206711
        ]
      }
    },
    {
      "type": "Feature",
      "properties": {
        "norad_id": 17070,
        "name": "POLAR BEAR",
        "group": "nnss",
        "lat": 81.49780712883825,
        "lon": -173.30883407723078,
        "alt_km": 960.3194498048588,
        "timestamp": "2025-12-03T17:47:50.986298+00:00",
        "meta_object_name": "POLAR BEAR",
        "meta_object_id": "1986-088A",
        "meta_epoch": "2025-12-03T12:27:51.998112",
        "meta_mean_motion": 13.75247876,
        "meta_eccentricity": 0.0040303,
        "meta_inclination": 89.618,
        "meta_ra_of_asc_node": 184.1423,
        "meta_arg_of_pericenter": 146.1086,
        "meta_mean_anomaly": 276.3577,
        "meta_ephemeris_type": 0,
        "meta_classification_type": "U",
        "meta_norad_cat_id": 17070,
        "meta_element_set_no": 999,
        "meta_rev_at_epoch": 95852,
        "meta_bstar": 0.00015166,
        "meta_mean_motion_dot": 1.58e-06,
        "meta_mean_motion_ddot": 0,
        "tle_line1": "1 17070U 86088A   25337.51935183  .00000158  00000+0  15166-3 0  9995",
        "tle_line2": "2 17070  89.6180 184.1423 0040303 146.1086 276.3577 13.75247876958524"
      },
      "geometry": {
        "type": "Point",
        "coordinates": [
          -173.30883407723078,
          81.49780712883825
        ]
      }
    },
    {
      "type": "Feature",
      "properties": {
        "norad_id": 18361,
        "name": "OSCAR 27",
        "group": "nnss",
        "lat": -60.83308602284667,
        "lon": -101.73520249957005,
        "alt_km": 1022.7977661912764,
        "timestamp": "2025-12-03T17:47:50.986308+00:00",
        "meta_object_name": "OSCAR 27",
        "meta_object_id": "1987-080A",
        "meta_epoch": "2025-12-03T07:40:10.390080",
        "meta_mean_motion": 13.44903559,
        "meta_eccentricity": 0.0102354,
        "meta_inclination": 90.3742,
        "meta_ra_of_asc_node": 78.9199,
        "meta_arg_of_pericenter": 251.1517,
        "meta_mean_anomaly": 107.8509,
        "meta_ephemeris_type": 0,
        "meta_classification_type": "U",
        "meta_norad_cat_id": 18361,
        "meta_element_set_no": 999,
        "meta_rev_at_epoch": 87430,
        "meta_bstar": 0.00021414,
        "meta_mean_motion_dot": 1.37e-06,
        "meta_mean_motion_ddot": 0,
        "tle_line1": "1 18361U 87080A   25337.31956470  .00000137  00000+0  21414-3 0  9992",
        "tle_line2": "2 18361  90.3742  78.9199 0102354 251.1517 107.8509 13.44903559874301"
      },
      "geometry": {
        "type": "Point",
        "coordinates": [
          -101.73520249957005,
          -60.83308602284667
        ]
      }
    },
    {
      "type": "Feature",
      "properties": {
        "norad_id": 18362,
        "name": "OSCAR 29",
        "group": "nnss",
        "lat": -87.83294279549439,
        "lon": -110.58849187361443,
        "alt_km": 1023.1198959674111,
        "timestamp": "2025-12-03T17:47:50.986318+00:00",
        "meta_object_name": "OSCAR 29",
        "meta_object_id": "1987-080B",
        "meta_epoch": "2025-12-03T07:49:55.668000",
        "meta_mean_motion": 13.44445634,
        "meta_eccentricity": 0.0103692,
        "meta_inclination": 90.3756,
        "meta_ra_of_asc_node": 79.3783,
        "meta_arg_of_pericenter": 274.5664,
        "meta_mean_anomaly": 144.9127,
        "meta_ephemeris_type": 0,
        "meta_classification_type": "U",
        "meta_norad_cat_id": 18362,
        "meta_element_set_no": 999,
        "meta_rev_at_epoch": 87383,
        "meta_bstar": 0.00017774,
        "meta_mean_motion_dot": 1.14e-06,
        "meta_mean_motion_ddot": 0,
        "tle_line1": "1 18362U 87080B   25337.32633875  .00000114  00000+0  17774-3 0  9994",
        "tle_line2": "2 18362  90.3756  79.3783 0103692 274.5664 144.9127 13.44445634873839"
      },
      "geometry": {
        "type": "Point",
        "coordinates": [
          -110.58849187361443,
          -87.83294279549439
        ]
      }
    },
    {
      "type": "Feature",
      "properties": {
        "norad_id": 19070,
        "name": "OSCAR 23",
        "group": "nnss",
        "lat": -43.06738653513643,
        "lon": -164.1879283259045,
        "alt_km": 1026.2867694348388,
        "timestamp": "2025-12-03T17:47:50.986328+00:00",
        "meta_object_name": "OSCAR 23",
        "meta_object_id": "1988-033A",
        "meta_epoch": "2025-12-03T09:30:06.350112",
        "meta_mean_motion": 13.27784917,
        "meta_eccentricity": 0.0188754,
        "meta_inclination": 90.3223,
        "meta_ra_of_asc_node": 16.1027,
        "meta_arg_of_pericenter": 205.9437,
        "meta_mean_anomaly": 165.0951,
        "meta_ephemeris_type": 0,
        "meta_classification_type": "U",
        "meta_norad_cat_id": 19070,
        "meta_element_set_no": 999,
        "meta_rev_at_epoch": 82129,
        "meta_bstar": 0.0002237,
        "meta_mean_motion_dot": 1.19e-06,
        "meta_mean_motion_ddot": 0,
        "tle_line1": "1 19070U 88033A   25337.39590683  .00000119  00000+0  22370-3 0  9999",
        "tle_line2": "2 19070  90.3223  16.1027 0188754 205.9437 165.0951 13.27784917821296"
      },
      "geometry": {
        "type": "Point",
        "coordinates": [
          -164.1879283259045,
          -43.06738653513643
        ]
      }
    }
  ]
}